HULIANWANG DIGUI 14J    
1 66923U 25285J   25344.63801325  .00000190  00000+0  20758-3 0  9998
2 66923  50.0076 125.8351 0005388 289.1569  70.8753 14.06055236   614
CZ-8A R/B               
1 66924U 25285K   25344.63539616  .00000112  00000+0  98432-4 0  9999
2 66924  50.0060 125.1122 0119313  99.3237 262.1193 14.30500545   624
HULIANWANG DIGUI 15A    
1 66953U 25287A   25344.28842681  .00000025  00000+0  96496-5 0  9995
2 66953  86.4956 347.0512 0008244 213.3003 146.7638 13.69073793   194
HULIANWANG DIGUI 15B    
1 66954U 25287B   25344.43449577  .00000026  00000+0  11008-4 0  9996
2 66954  86.4972 346.9997 0008195 212.0231 148.0431 13.69168852   212
HULIANWANG DIGUI 15C    
1 66955U 25287C   25343.41133017  .00000020  00000+0  34705-5 0  9997
2 66955  86.4914 347.3632 0007632 209.8722 150.2003 13.69296672    70
HULIANWANG DIGUI 15D    
1 66956U 25287D   25344.36118277  .00000026  00000+0  10798-4 0  9995
2 66956  86.4971 347.0263 0007071 199.7388 160.3499 13.69398761   201
HULIANWANG DIGUI 15E    
1 66957U 25287E   25344.36107273 -.00000156  00000+0 -19875-3 0  9990
2 66957  86.4942 347.0238 0006899 197.5170 162.5753 13.69509074   202
CZ-6A R/B               
1 66958U 25287F   25344.62271069  .00000880  00000+0  61149-3 0  9998
2 66958  86.5059 346.9056 0107180 108.4995 252.7862 13.94919170   247
YAOGAN-47               
1 66988U 25289A   25344.44140095  .00005840  00000+0  24588-3 0  9994
2 66988  97.5219  49.5452 0003184 188.4341 171.6843 15.23753580   195
CZ-4B R/B               
1 66989U 25289B   25344.60307166  .00052933  29794-5  27359-3 0  9998
2 66989  97.5238  49.7860 0151881  11.0923 349.3621 15.66309569   231
TJS-22                  
1 66990U 25290A   25344.29968569 -.00000038  00000+0  79788-1 0  9991
2 66990  20.1261 301.1464 6664534 180.6877 177.6237  2.15443148    32
CZ-3B R/B               
1 66991U 25290B   25344.28119881  .00018897  45621-6  43781-3 0  9998
2 66991  28.4645 302.5976 7242056 179.3847 182.8677  2.37676924    37
